1 33376U 08045A   23116.00396572 -.00000142  00000-0  00000+0 0  9991
2 33376   0.0140 140.5308 0002695 255.0828  82.5678  1.00272737 53320
1 33376U 08045A   23116.00396572 -.00000142  00000-0  00000-0 0  9992
2 33376   0.0140 140.5308 0002695 255.0828  82.5678  1.00272737 53397
1 33376U 08045A   23116.58676756 -.00000140  00000-0  00000-0 0  9998
2 33376   0.0173 255.5720 0002908 145.9363 287.0462  1.00267863 53393
1 33376U 08045A   23117.31785375 -.00000140  00000-0  00000-0 0  9998
2 33376   0.0178 260.0649 0002922 144.8920 187.4985  1.00267776 53400
1 33376U 08045A   23118.21846183 -.00000139  00000-0  00000+0 0  9990
2 33376   0.0128 243.2987 0003034 160.8994 153.3770  1.00270787 53340
1 33376U 08045A   23118.58962701 -.00000138  00000-0  00000-0 0  9995
2 33376   0.0125 242.3198 0003042 160.0034 289.2391  1.00270680 53415
1 33376U 08045A   23119.25189891 -.00000137  00000-0  00000+0 0  9999
2 33376   0.0118 239.0402 0003083 164.6833 166.9120  1.00270541 53350
1 33376U 08045A   23119.55554362 -.00000136  00000-0  00000-0 0  9991
2 33376   0.0116 238.8968 0003095 165.9095 275.4418  1.00270501 53429
1 33376U 08045A   23120.52955083 -.00000134  00000-0  00000+0 0  9992
2 33376   0.0106 237.8843 0003153 169.3305 264.6385  1.00270321 53362
1 33376U 08045A   23120.52955083 -.00000134  00000-0  00000-0 0  9993
2 33376   0.0106 237.8843 0003153 169.3305 264.6385  1.00270321 53430
1 33376U 08045A   23121.55185610 -.00000131  00000-0  00000+0 0  9994
2 33376   0.0160 270.7200 0003275 138.2763 271.8912  1.00268061 53389
1 33376U 08045A   23121.55185610 -.00000131  00000-0  00000-0 0  9995
2 33376   0.0160 270.7200 0003275 138.2763 271.8912  1.00268061 53446
1 33376U 08045A   23122.39338797 -.00000128  00000-0  00000-0 0  9990
2 33376   0.0182 272.7386 0003333 138.8075 213.1123  1.00268289 53450
1 33376U 08045A   23123.27917603 -.00000127  00000-0  00000+0 0  9995
2 33376   0.0207 271.6290 0002967 128.9203 183.8835  1.00273123 53394
1 33376U 08045A   23123.56445238 -.00000126  00000-0  00000-0 0  9997
2 33376   0.0207 272.7877 0002986 128.2572 286.3696  1.00272942 53460
